NORAD_CAT_ID,OBJECT_NAME,OBJECT_TYPE,EPOCH,MEAN_MOTION,ECCENTRICITY,INCLINATION,RA_OF_ASC_NODE,ARG_OF_PERICENTER,MEAN_ANOMALY,BSTAR,MEAN_MOTION_DOT,MEAN_MOTION_DDOT,TLE_LINE0,TLE_LINE1,TLE_LINE2,SEMIMAJOR_AXIS,PERIOD,APOGEE,PERIGEE,DECAYED
49751.0,STARLINK-3229,PAYLOAD,2022-06-08 11:21:47,15.08832158,0.000221,53.2221,180.2558,37.958,322.1567,-0.00010726,-1.995e-05,0.0,0 STARLINK-3229,1 49751U 21115AD  22159.47347164 -.00001995  00000-0 -10726-3 0  9996,2 49751  53.2221 180.2558 0002210  37.9580 322.1567 15.08832158 29793,6917.904,95.438,541.298,538.241,0.0
49751.0,STARLINK-3229,PAYLOAD,2022-06-09 08:01:48,15.08841514,0.0002341,53.221,176.3903,37.3571,322.7583,-0.00029728,-5.017e-05,0.0,0 STARLINK-3229,1 49751U 21115AD  22160.33459320 -.00005017  00000-0 -29728-3 0  9992,2 49751  53.2210 176.3903 0002341  37.3571 322.7583 15.08841514 28812,6917.876,95.437,541.36,538.121,0.0
49751.0,STARLINK-3229,PAYLOAD,2022-06-09 17:34:08,15.08823097,0.0002237,53.2207,174.6064,37.6337,322.4812,-6.3319e-05,-1.295e-05,0.0,0 STARLINK-3229,1 49751U 21115AD  22160.73204299 -.00001295  00000-0 -63319-4 0  9998,2 49751  53.2207 174.6064 0002237  37.6337 322.4812 15.08823097 29981,6917.932,95.439,541.345,538.25,0.0
49751.0,STARLINK-3229,PAYLOAD,2022-06-10 11:03:23,15.08820106,0.0002286,53.2203,171.3355,38.8288,321.2868,2.4588e-05,1.03e-06,0.0,0 STARLINK-3229,1 49751U 21115AD  22161.46069077  .00000103  00000-0  24588-4 0  9992,2 49751  53.2203 171.3355 0002286  38.8288 321.2868 15.08820106 28981,6917.941,95.439,541.388,538.225,0.0
49751.0,STARLINK-3229,PAYLOAD,2022-06-10 17:24:56,15.08818361,0.0002316,53.2202,170.146,38.7187,321.3971,5.8422e-05,6.41e-06,0.0,0 STARLINK-3229,1 49751U 21115AD  22161.72565450  .00000641  00000-0  58422-4 0  9998,2 49751  53.2202 170.1460 0002316  38.7187 321.3971 15.08818361 29027,6917.946999999999,95.439,541.414,538.2090000000002,0.0
49751.0,STARLINK-3229,PAYLOAD,2022-06-11 04:32:38,15.08821227,0.0002351,53.2201,168.0644,38.9033,321.2128,5.2778e-05,5.51e-06,0.0,0 STARLINK-3229,1 49751U 21115AD  22162.18933914  .00000551  00000-0  52778-4 0  9991,2 49751  53.2201 168.0644 0002351  38.9033 321.2128 15.08821227 30207,6917.938,95.439,541.429,538.1759999999998,0.0
49751.0,STARLINK-3229,PAYLOAD,2022-06-11 17:15:44,15.08823764,0.0002395,53.2202,165.6857,39.8202,320.2966,6.4526e-05,7.38e-06,0.0,0 STARLINK-3229,1 49751U 21115AD  22162.71926339  .00000738  00000-0  64526-4 0  9994,2 49751  53.2202 165.6857 0002395  39.8202 320.2966 15.08823764 29174,6917.93,95.439,541.452,538.138,0.0
49751.0,STARLINK-3229,PAYLOAD,2022-06-12 07:34:12,15.08827306,0.0002425,53.2202,163.0097,40.9885,319.1289,6.3285e-05,7.19e-06,0.0,0 STARLINK-3229,1 49751U 21115AD  22163.31542704  .00000719  00000-0  63285-4 0  9991,2 49751  53.2202 163.0097 0002425  40.9885 319.1289 15.08827306 30371,6917.919,95.438,541.462,538.107,0.0
49751.0,STARLINK-3229,PAYLOAD,2022-06-12 17:06:31,15.08829694,0.0002424,53.2202,161.2259,41.8965,318.2212,6.735600000000001e-05,7.84e-06,0.0,0 STARLINK-3229,1 49751U 21115AD  22163.71286857  .00000784  00000-0  67356-4 0  9994,2 49751  53.2202 161.2259 0002424  41.8965 318.2212 15.08829694 29320,6917.9119999999975,95.438,541.4540000000002,538.1,0.0
49751.0,STARLINK-3229,PAYLOAD,2022-06-13 07:25:00,15.08834442,0.0002488,53.2204,158.5499,43.3302,316.7886,8.4125e-05,1.051e-05,0.0,0 STARLINK-3229,1 49751U 21115AD  22164.30902891  .00001051  00000-0  84125-4 0  9994,2 49751  53.2204 158.5499 0002488  43.3302 316.7886 15.08834442 29416,6917.897,95.438,541.484,538.0409999999998,0.0
49751.0,STARLINK-3229,PAYLOAD,2022-06-14 08:51:09,15.08843991,0.0002511,53.2203,153.7922,45.4037,314.716,0.00010708,1.416e-05,0.0,0 STARLINK-3229,1 49751U 21115AD  22165.36886453  .00001416  00000-0  10708-3 0  9996,2 49751  53.2203 153.7922 0002511  45.4037 314.7160 15.08843991 30681,6917.868,95.437,541.47,537.996,0.0
49751.0,STARLINK-3229,PAYLOAD,2022-06-14 16:48:05,15.08844992,0.0002275,53.2204,152.3058,51.3703,308.7492,0.00012469,1.697e-05,0.0,0 STARLINK-3229,1 49751U 21115AD  22165.70006147  .00001697  00000-0  12469-3 0  9995,2 49751  53.2204 152.3058 0002275  51.3703 308.7492 15.08844992 29625,6917.865,95.437,541.304,538.156,0.0
49751.0,STARLINK-3229,PAYLOAD,2022-06-15 08:41:56,15.08852736,0.0002605,53.2202,149.332,47.1746,312.9465,0.00012429,1.691e-05,0.0,0 STARLINK-3229,1 49751U 21115AD  22166.36245401  .00001691  00000-0  12429-3 0  9996,2 49751  53.2202 149.3320 0002605  47.1746 312.9465 15.08852736 30835,6917.840999999999,95.437,541.509,537.904,0.0
49751.0,STARLINK-3229,PAYLOAD,2022-06-15 23:00:23,15.08857479,0.0002669,53.2198,146.6557,49.1886,310.9337,0.00010726,1.42e-05,0.0,0 STARLINK-3229,1 49751U 21115AD  22166.95860675  .00001420  00000-0  10726-3 0  9995,2 49751  53.2198 146.6557 0002669  49.1886 310.9337 15.08857479 29819,6917.8269999999975,95.436,541.538,537.846,0.0
49751.0,STARLINK-3229,PAYLOAD,2022-06-19 08:05:03,15.08826791,0.0002745,53.2186,131.4892,43.2142,316.9065,0.00016082,2.271e-05,0.0,0 STARLINK-3229,1 49751U 21115AD  22170.33684940  .00002271  00000-0  16082-3 0  9997,2 49751  53.2186 131.4892 0002745  43.2142 316.9065 15.08826791 30320,6917.920999999999,95.438,541.685,537.887,0.0
49751.0,STARLINK-3229,PAYLOAD,2022-06-19 14:26:35,15.08845515,0.0002673,53.2212,130.3023,49.9708,310.1519,3.3781e-05,2.49e-06,0.0,0 STARLINK-3229,1 49751U 21115AD  22170.60180033  .00000249  00000-0  33781-4 0  9990,2 49751  53.2212 130.3023 0002673  49.9708 310.1519 15.08845515 31477,6917.864000000001,95.437,541.578,537.879,0.0
49751.0,STARLINK-3229,PAYLOAD,2022-06-19 20:48:08,15.08837396,0.0002822,53.2214,129.1135,52.7573,307.3676,0.00012759,1.743e-05,0.0,0 STARLINK-3229,1 49751U 21115AD  22170.86676076  .00001743  00000-0  12759-3 0  9996,2 49751  53.2214 129.1135 0002822  52.7573 307.3676 15.08837396 30409,6917.888000000001,95.438,541.706,537.8009999999998,0.0
49751.0,STARLINK-3229,PAYLOAD,2022-06-19 20:48:09,15.08847955,0.0002557,53.2195,129.115,55.1849,304.9895,0.00056024,8.641e-05,0.0,0 STARLINK-3229,1 49751U 21115AD  22170.86677097  .00008641  00000-0  56024-3 0  9997,2 49751  53.2195 129.1150 0002557  55.1849 304.9895 15.08847955 31513,6917.856,95.437,541.49,537.952,0.0
49751.0,STARLINK-3229,PAYLOAD,2022-06-20 01:34:18,15.08831217,0.0002745,53.2224,128.2218,52.0671,308.0569,9.5651e-05,1.234e-05,0.0,0 STARLINK-3229,1 49751U 21115AD  22171.06548622  .00001234  00000-0  95651-4 0  9992,2 49751  53.2224 128.2218 0002745  52.0671 308.0569 15.08831217 31549,6917.906999999997,95.438,541.6709999999998,537.873,0.0
49751.0,STARLINK-3229,PAYLOAD,2022-06-20 04:45:04,15.08830554,0.0002682,53.2223,127.6266,50.9692,309.1538,3.842e-05,3.23e-06,0.0,0 STARLINK-3229,1 49751U 21115AD  22171.19796960  .00000323  00000-0  38420-4 0  9995,2 49751  53.2223 127.6266 0002682  50.9692 309.1538 15.08830554 30454,6917.909000000002,95.438,541.63,537.919,0.0
49751.0,STARLINK-3229,PAYLOAD,2022-06-21 03:00:27,15.08845038,0.0002506,53.2213,123.4644,52.0285,308.0934,0.0001117,1.49e-05,0.0,0 STARLINK-3229,1 49751U 21115AD  22172.12531926  .00001490  00000-0  11170-3 0  9996,2 49751  53.2213 123.4644 0002506  52.0285 308.0934 15.08845038 31691,6917.865,95.437,541.464,537.996,0.0
49751.0,STARLINK-3229,PAYLOAD,2022-06-21 14:08:10,15.08839647,0.0002459,53.2207,121.3831,50.4485,309.6724,-1.0551e-05,-4.56e-06,0.0,0 STARLINK-3229,1 49751U 21115AD  22172.58900589 -.00000456  00000-0 -10551-4 0  9997,2 49751  53.2207 121.3831 0002459  50.4485 309.6724 15.08839647 31761,6917.880999999999,95.438,541.448,538.045,0.0
49751.0,STARLINK-3229,PAYLOAD,2022-06-21 20:29:42,15.08840695,0.000247,53.2207,120.1937,49.8729,310.248,-2.7163e-07,-2.93e-06,0.0,0 STARLINK-3229,1 49751U 21115AD  22172.85396463 -.00000293  00000-0 -27163-6 0  9995,2 49751  53.2207 120.1937 0002470  49.8729 310.2480 15.08840695 30706,6917.878000000002,95.438,541.452,538.035,0.0
49751.0,STARLINK-3229,PAYLOAD,2022-06-22 06:02:01,15.0884109,0.0002478,53.2206,118.4092,52.2746,307.8471,9.4245e-05,1.212e-05,0.0,0 STARLINK-3229,1 49751U 21115AD  22173.25140149  .00001212  00000-0  94245-4 0  9991,2 49751  53.2206 118.4092 0002478  52.2746 307.8471 15.08841090 30760,6917.877,95.437,541.456,538.028,0.0
49751.0,STARLINK-3229,PAYLOAD,2022-06-22 13:58:57,15.08837009,0.0002707,53.2208,116.9227,49.5704,310.5524,3.8245e-05,3.2e-06,0.0,0 STARLINK-3229,1 49751U 21115AD  22173.58260721  .00000320  00000-0  38245-4 0  9993,2 49751  53.2208 116.9227 0002707  49.5704 310.5524 15.08837009 30814,6917.89,95.438,541.627,537.882,0.0
49751.0,STARLINK-3229,PAYLOAD,2022-06-23 02:42:02,15.0883154,0.000249,53.2211,114.5431,63.7362,296.3886,0.00012456,1.694e-05,0.0,0 STARLINK-3229,1 49751U 21115AD  22174.11252656  .00001694  00000-0  12456-3 0  9991,2 49751  53.2211 114.5431 0002490  63.7362 296.3886 15.08831540 32005,6917.906,95.438,541.494,538.049,0.0
49751.0,STARLINK-3229,PAYLOAD,2022-06-23 05:52:48,15.08830198,0.0002518,53.2211,113.9485,63.7528,296.3723,0.00015794,2.226e-05,0.0,0 STARLINK-3229,1 49751U 21115AD  22174.24500708  .00002226  00000-0  15794-3 0  9999,2 49751  53.2211 113.9485 0002518  63.7528 296.3723 15.08830198 30918,6917.91,95.438,541.5169999999998,538.033,0.0
49751.0,STARLINK-3229,PAYLOAD,2022-06-24 12:05:08,15.08845957,0.0002441,53.2217,108.2996,53.7347,306.387,-0.00011876,-2.178e-05,0.0,0 STARLINK-3229,1 49751U 21115AD  22175.50356500 -.00002178  00000-0 -11876-3 0  9993,2 49751  53.2217 108.2996 0002441  53.7347 306.3870 15.08845957 32209,6917.861999999999,95.437,541.4159999999998,538.039,0.0
49751.0,STARLINK-3229,PAYLOAD,2022-06-25 02:23:37,15.08830113,0.0002457,53.2213,105.6235,50.8843,309.2368,7.760200000000002e-07,-2.76e-06,0.0,0 STARLINK-3229,1 49751U 21115AD  22176.09973626 -.00000276  00000-0  77602-6 0  9990,2 49751  53.2213 105.6235 0002457  50.8843 309.2368 15.08830113 32301,6917.911,95.438,541.475,538.076,0.0
